{
  "type": "FeatureCollection",
  "features": [
    {
      "type": "Feature",
      "properties": {
        "norad_id": 33376,
        "name": "GALAXY 19 (G-19)",
        "group": "intelsat",
        "lat": 0.019420699553232522,
        "lon": -15.604592774323892,
        "alt_km": 35783.431448572235,
        "timestamp": "2025-12-17T23:38:06.530438+00:00",
        "meta_object_name": "GALAXY 19 (G-19)",
        "meta_object_id": "2008-045A",
        "meta_epoch": "2025-12-17T12:00:00.903744",
        "meta_mean_motion": 1.00271051,
        "meta_eccentricity": 0.00025154,
        "meta_inclination": 0.022,
        "meta_ra_of_asc_node": 283.0681,
        "meta_arg_of_pericenter": 347.0126,
        "meta_mean_anomaly": 259.2988,
        "meta_ephemeris_type": 0,
        "meta_classification_type": "U",
        "meta_norad_cat_id": 33376,
        "meta_element_set_no": 999,
        "meta_rev_at_epoch": 6308,
        "meta_bstar": 0,
        "meta_mean_motion_dot": -1.14e-06,
        "meta_mean_motion_ddot": 0,
        "tle_line1": "1 33376U 08045A   25351.50001046 -.00000114  00000+0  00000+0 0  9996",
        "tle_line2": "2 33376   0.0220 283.0681 0002515 347.0126 259.2988  1.00271051 63089"
      },
      "geometry": {
        "type": "Point",
        "coordinates": [
          -15.604592774323892,
          0.019420699553232522
        ]
      }
    },
    {
      "type": "Feature",
      "properties": {
        "norad_id": 35493,
        "name": "FM-5",
        "group": "intelsat",
        "lat": 0.022628021119506705,
        "lon": -4.7803714078822725,
        "alt_km": 35789.531747685956,
        "timestamp": "2025-12-17T23:38:06.530450+00:00",
        "meta_object_name": "FM-5",
        "meta_object_id": "2009-034A",
        "meta_epoch": "2025-12-17T12:55:02.392896",
        "meta_mean_motion": 1.00270579,
        "meta_eccentricity": 8.258e-05,
        "meta_inclination": 0.019,
        "meta_ra_of_asc_node": 293.2593,
        "meta_arg_of_pericenter": 214.9962,
        "meta_mean_anomaly": 45.775,
        "meta_ephemeris_type": 0,
        "meta_classification_type": "U",
        "meta_norad_cat_id": 35493,
        "meta_element_set_no": 999,
        "meta_rev_at_epoch": 4482,
        "meta_bstar": 0,
        "meta_mean_motion_dot": -1.75e-06,
        "meta_mean_motion_ddot": 0,
        "tle_line1": "1 35493U 09034A   25351.53822214 -.00000175  00000+0  00000+0 0  9995",
        "tle_line2": "2 35493   0.0190 293.2593 0000825 214.9962  45.7750  1.00270579 44824"
      },
      "geometry": {
        "type": "Point",
        "coordinates": [
          -4.7803714078822725,
          0.022628021119506705
        ]
      }
    },
    {
      "type": "Feature",
      "properties": {
        "norad_id": 36097,
        "name": "INTELSAT 14 (IS-14)",
        "group": "intelsat",
        "lat": 0.032738524727472,
        "lon": 36.40576422225804,
        "alt_km": 35791.31940267413,
        "timestamp": "2025-12-17T23:38:06.530462+00:00",
        "meta_object_name": "INTELSAT 14 (IS-14)",
        "meta_object_id": "2009-064A",
        "meta_epoch": "2025-12-17T09:41:14.408736",
        "meta_mean_motion": 1.00272181,
        "meta_eccentricity": 0.00024378,
        "meta_inclination": 0.0122,
        "meta_ra_of_asc_node": 320.5226,
        "meta_arg_of_pericenter": 315.1724,
        "meta_mean_anomaly": 270.908,
        "meta_ephemeris_type": 0,
        "meta_classification_type": "U",
        "meta_norad_cat_id": 36097,
        "meta_element_set_no": 999,
        "meta_rev_at_epoch": 5878,
        "meta_bstar": 0,
        "meta_mean_motion_dot": -2.49e-06,
        "meta_mean_motion_ddot": 0,
        "tle_line1": "1 36097U 09064A   25351.40363899 -.00000249  00000+0  00000+0 0  9996",
        "tle_line2": "2 36097   0.0122 320.5226 0002437 315.1724 270.9080  1.00272181 58787"
      },
      "geometry": {
        "type": "Point",
        "coordinates": [
          36.40576422225804,
          0.032738524727472
        ]
      }
    },
    {
      "type": "Feature",
      "properties": {
        "norad_id": 36106,
        "name": "INTELSAT 15 (IS-15)",
        "group": "intelsat",
        "lat": -0.002377326273034487,
        "lon": 166.50065261897532,
        "alt_km": 35789.460460162976,
        "timestamp": "2025-12-17T23:38:06.530474+00:00",
        "meta_object_name": "INTELSAT 15 (IS-15)",
        "meta_object_id": "2009-067A",
        "meta_epoch": "2025-12-17T13:43:50.220192",
        "meta_mean_motion": 1.00271611,
        "meta_eccentricity": 0.00021676,
        "meta_inclination": 0.0171,
        "meta_ra_of_asc_node": 343.1214,
        "meta_arg_of_pericenter": 294.639,
        "meta_mean_anomaly": 99.8011,
        "meta_ephemeris_type": 0,
        "meta_classification_type": "U",
        "meta_norad_cat_id": 36106,
        "meta_element_set_no": 999,
        "meta_rev_at_epoch": 3940,
        "meta_bstar": 0,
        "meta_mean_motion_dot": -1.6e-06,
        "meta_mean_motion_ddot": 0,
        "tle_line1": "1 36106U 09067A   25351.57210903 -.00000160  00000+0  00000+0 0  9997",
        "tle_line2": "2 36106   0.0171 343.1214 0002167 294.6390  99.8011  1.00271611 39407"
      },
      "geometry": {
        "type": "Point",
        "coordinates": [
          166.50065261897532,
          -0.002377326273034487
        ]
      }
    },
    {
      "type": "Feature",
      "properties": {
        "norad_id": 36131,
        "name": "DIRECTV 12",
        "group": "intelsat",
        "lat": -0.014359067279995773,
        "lon": -21.341480100071824,
        "alt_km": 35783.65259983537,
        "timestamp": "2025-12-17T23:38:06.530485+00:00",
        "meta_object_name": "DIRECTV 12",
        "meta_object_id": "2009-075A",
        "meta_epoch": "2025-12-17T12:02:07.721664",
        "meta_mean_motion": 1.00273321,
        "meta_eccentricity": 4.896e-05,
        "meta_inclination": 0.0482,
        "meta_ra_of_asc_node": 155.1358,
        "meta_arg_of_pericenter": 195.2953,
        "meta_mean_anomaly": 173.7663,
        "meta_ephemeris_type": 0,
        "meta_classification_type": "U",
        "meta_norad_cat_id": 36131,
        "meta_element_set_no": 999,
        "meta_rev_at_epoch": 4473,
        "meta_bstar": 0,
        "meta_mean_motion_dot": -7.9e-07,
        "meta_mean_motion_ddot": 0,
        "tle_line1": "1 36131U 09075A   25351.50147826 -.00000079  00000+0  00000+0 0  9999",
        "tle_line2": "2 36131   0.0482 155.1358 0000489 195.2953 173.7663  1.00273321 44733"
      },
      "geometry": {
        "type": "Point",
        "coordinates": [
          -21.341480100071824,
          -0.014359067279995773
        ]
      }
    },
    {
      "type": "Feature",
      "properties": {
        "norad_id": 36397,
        "name": "INTELSAT 16 (IS-16)",
        "group": "intelsat",
        "lat": 0.008694949749774333,
        "lon": 5.195410504570328,
        "alt_km": 35787.11461425797,
        "timestamp": "2025-12-17T23:38:06.530497+00:00",
        "meta_object_name": "INTELSAT 16 (IS-16)",
        "meta_object_id": "2010-006A",
        "meta_epoch": "2025-12-17T12:57:47.130048",
        "meta_mean_motion": 1.00272497,
        "meta_eccentricity": 0.00018317,
        "meta_inclination": 0.0098,
        "meta_ra_of_asc_node": 356.6253,
        "meta_arg_of_pericenter": 269.7654,
        "meta_mean_anomaly": 298.2757,
        "meta_ephemeris_type": 0,
        "meta_classification_type": "U",
        "meta_norad_cat_id": 36397,
        "meta_element_set_no": 999,
        "meta_rev_at_epoch": 5783,
        "meta_bstar": 0,
        "meta_mean_motion_dot": -2.2e-06,
        "meta_mean_motion_ddot": 0,
        "tle_line1": "1 36397U 10006A   25351.54012882 -.00000220  00000+0  00000+0 0  9994",
        "tle_line2": "2 36397   0.0098 356.6253 0001831 269.7654 298.2757  1.00272497 57834"
      },
      "geometry": {
        "type": "Point",
        "coordinates": [
          5.195410504570328,
          0.008694949749774333
        ]
      }
    },
    {
      "type": "Feature",
      "properties": {
        "norad_id": 37185,
        "name": "XM-5",
        "group": "intelsat",
        "lat": 0.04183005510693468,
        "lon": -33.82762777088532,
        "alt_km": 35794.120398177365,
        "timestamp": "2025-12-17T23:38:06.530509+00:00",
        "meta_object_name": "XM-5",
        "meta_object_id": "2010-053A",
        "meta_epoch": "2025-12-17T14:05:26.297088",
        "meta_mean_motion": 1.00270586,
        "meta_eccentricity": 0.000184,
        "meta_inclination": 0.0634,
        "meta_ra_of_asc_node": 272.4688,
        "meta_arg_of_pericenter": 230.1399,
        "meta_mean_anomaly": 40.0192,
        "meta_ephemeris_type": 0,
        "meta_classification_type": "U",
        "meta_norad_cat_id": 37185,
        "meta_element_set_no": 999,
        "meta_rev_at_epoch": 5566,
        "meta_bstar": 0,
        "meta_mean_motion_dot": 2e-08,
        "meta_mean_motion_ddot": 0,
        "tle_line1": "1 37185U 10053A   25351.58710992  .00000002  00000+0  00000+0 0  9990",
        "tle_line2": "2 37185   0.0634 272.4688 0001840 230.1399  40.0192  1.00270586 55663"
      },
      "geometry": {
        "type": "Point",
        "coordinates": [
          -33.82762777088532,
          0.04183005510693468
        ]
      }
    }
  ]
}